OBJECT_NAME,OBJECT_ID,EPOCH,MEAN_MOTION,ECCENTRICITY,INCLINATION,RA_OF_ASC_NODE,ARG_OF_PERICENTER,MEAN_ANOMALY,EPHEMERIS_TYPE,CLASSIFICATION_TYPE,NORAD_CAT_ID,ELEMENT_SET_NO,REV_AT_EPOCH,BSTAR,MEAN_MOTION_DOT,MEAN_MOTION_DDOT
DUCHIFAT-1,2014-033M,2026-06-18T16:25:31.161216,15.64848252,.0002814,98.0447,229.0553,113.8680,246.2872,0,U,40021,999,65598,.89915901E-3,.88318E-3,0
NANOSATC-BR1,2014-033Q,2026-06-18T20:07:58.344672,15.31498913,.00045564,98.0716,202.3732,158.4480,201.6952,0,U,40024,999,65423,.42393199E-3,.12819E-3,0
QB50P1,2014-033R,2026-06-18T22:18:31.458528,15.18280964,.00080072,98.0963,181.1977,208.7804,151.2987,0,U,40025,999,65329,.30693446E-3,.622E-4,0
DTUSAT-2,2014-033W,2026-06-18T21:20:16.214784,15.15033669,.00068042,98.0864,167.7240,218.7107,141.3636,0,U,40030,999,65294,.28819519E-3,.5314E-4,0
QB50P2,2014-033Y,2026-06-18T22:46:54.290208,15.15176502,.00081691,98.0753,166.9392,158.0702,202.0879,0,U,40032,999,65293,.31388959E-3,.582E-4,0
PERSEUS-M1,2014-033AF,2026-06-18T18:36:54.067392,14.95634843,.00101976,97.9640,113.9333,295.2954,64.7209,0,U,40039,999,65087,.12433073E-3,.1322E-4,0
POLYITAN-1,2014-033AJ,2026-06-18T14:50:43.313568,15.33297714,.00087243,98.0940,196.0151,137.4054,222.7864,0,U,40042,999,65381,.4742275E-3,.152E-3,0
TIGRISAT,2014-033AK,2026-06-18T22:26:19.970304,14.85167819,.00505403,97.7832,319.9063,69.6369,291.0266,0,U,40043,999,64588,.18213402E-3,.154E-4,0
CANX-4,2014-034C,2026-06-18T21:47:49.095168,14.81267198,.00130396,98.3120,45.2845,11.6457,348.5053,0,U,40055,999,64478,.95633747E-4,.689E-5,0
CANX-5,2014-034D,2026-06-18T21:45:31.991328,14.81284514,.00130429,98.3121,45.3265,11.8778,348.2739,0,U,40056,999,63559,.9721318E-4,.701E-5,0
GONETS-M 10,2014-036C,2026-06-19T00:03:18.078912,12.42945679,.00227251,82.5119,306.5464,136.8046,223.4822,0,U,40063,999,54247,.16217471E-3,.33E-6,0
METEOR-M 2,2014-037A,2026-06-18T23:25:04.220256,14.21462439,.00066723,98.5117,145.6511,40.0106,320.1562,0,U,40069,999,61957,.10498042E-3,.188E-5,0
DX1,2014-037C,2026-06-18T23:21:21.748032,14.89988121,.00057171,98.3870,131.7832,268.2622,91.7939,0,U,40071,999,64637,.12582582E-3,.115E-4,0
UKUBE-1,2014-037F,2026-06-18T22:52:38.944128,15.13577240,.00027235,98.4237,173.4107,129.5212,230.6257,0,U,40074,999,64882,.3998766E-3,.7098E-4,0
GAOFEN-2,2014-049A,2026-06-19T00:00:58.422816,14.80899495,.00062946,98.0106,234.2062,219.3716,140.7039,0,U,40118,999,63950,.681301E-4,.473E-5,0
BRITE-PL2 (HEWELIUSZ),2014-049B,2026-06-18T18:41:57.183648,14.94598146,.00153333,97.9100,281.7913,103.7702,256.5226,0,U,40119,999,64168,.15283478E-3,.1598E-4,0
CBERS 4,2014-079A,2026-06-18T23:43:58.067328,14.35509137,.00017764,98.3527,226.7640,63.1935,296.9433,0,U,40336,999,60421,.9763563E-5,-.14E-6,0
SMAP,2015-003A,2026-06-18T22:13:30.986976,14.63367814,.00013436,98.1276,176.9960,96.3958,263.7397,0,U,40376,999,60787,.68394751E-4,.306E-5,0
GONETS-M 11,2015-020A,2026-06-18T22:34:02.567136,12.42877457,.001654,82.4863,29.8991,2.0433,358.0711,0,U,40552,999,50895,.11350493E-3,.26E-6,0
GONETS-M 12,2015-020B,2026-06-18T23:51:45.355680,12.42891430,.00152512,82.4897,30.9899,347.0895,12.9792,0,U,40553,999,50895,.17408087E-3,.34E-6,0
GONETS-M 13,2015-020C,2026-06-18T23:13:36.839136,12.42870697,.00135723,82.4859,29.6207,332.3604,27.6753,0,U,40554,999,50892,.14756633E-3,.3E-6,0
DMC3-FM1,2015-032A,2026-06-18T22:57:13.981248,14.85738998,.00069353,97.6454,35.0620,54.8179,305.3686,0,U,40715,999,59017,.11837195E-4,.51E-6,0
DMC3-FM2,2015-032B,2026-06-18T21:51:59.967936,14.85745395,.00074873,97.6508,36.5930,59.4504,300.7449,0,U,40716,999,59016,.70391149E-4,.56E-5,0
DMC3-FM3,2015-032C,2026-06-18T22:25:36.265728,14.85738086,.00067753,97.6561,38.3701,60.1546,300.0342,0,U,40717,999,59017,.13870004E-3,.1153E-4,0
CARBONITE 1 (CBNT-1),2015-032D,2026-06-19T00:05:05.817984,14.83593680,.0013074,97.6505,347.9933,291.8307,68.1517,0,U,40718,999,58961,.20803463E-3,.1666E-4,0
LILACSAT-2,2015-049K,2026-06-18T22:46:50.196576,15.51491899,.00056177,97.4640,206.8579,236.7173,123.3541,0,U,40908,999,59602,.23002746E-3,.13503E-3,0
